<?xml version="1.0" encoding="UTF-8"?>
<ndm xmlns:xsi="http://www.w3.org/2001/XMLSchema-instance" xsi:noNamespaceSchemaLocation="https://sanaregistry.org/r/ndmxml_unqualified/ndmxml-2.0.0-master-2.0.xsd">
<omm id="CCSDS_OMM_VERS" version="2.0">
<header><CREATION_DATE/><ORIGINATOR/></header><body><segment><metadata><OBJECT_NAME>ORBCOMM FM20 [+]</OBJECT_NAME><OBJECT_ID>1998-046D</OBJECT_ID><CENTER_NAME>EARTH</CENTER_NAME><REF_FRAME>TEME</REF_FRAME><TIME_SYSTEM>UTC</TIME_SYSTEM><MEAN_ELEMENT_THEORY>SGP4</MEAN_ELEMENT_THEORY></metadata><data><meanElements><EPOCH>2023-10-05T14:02:13.602624</EPOCH><MEAN_MOTION>14.34451150</MEAN_MOTION><ECCENTRICITY>.0002275</ECCENTRICITY><INCLINATION>44.9935</INCLINATION><RA_OF_ASC_NODE>233.3460</RA_OF_ASC_NODE><ARG_OF_PERICENTER>312.5279</ARG_OF_PERICENTER><MEAN_ANOMALY>47.5375</MEAN_ANOMALY></meanElements><tleParameters><EPHEMERIS_TYPE>0</EPHEMERIS_TYPE><CLASSIFICATION_TYPE>U</CLASSIFICATION_TYPE><NORAD_CAT_ID>25416</NORAD_CAT_ID><ELEMENT_SET_NO>999</ELEMENT_SET_NO><REV_AT_EPOCH>31507</REV_AT_EPOCH><BSTAR>.88359E-3</BSTAR><MEAN_MOTION_DOT>.2371E-4</MEAN_MOTION_DOT><MEAN_MOTION_DDOT>0</MEAN_MOTION_DDOT></tleParameters></data></segment></body></omm>
<omm id="CCSDS_OMM_VERS" version="2.0">
<header><CREATION_DATE/><ORIGINATOR/></header><body><segment><metadata><OBJECT_NAME>ORBCOMM FM16 [-]</OBJECT_NAME><OBJECT_ID>1998-046E</OBJECT_ID><CENTER_NAME>EARTH</CENTER_NAME><REF_FRAME>TEME</REF_FRAME><TIME_SYSTEM>UTC</TIME_SYSTEM><MEAN_ELEMENT_THEORY>SGP4</MEAN_ELEMENT_THEORY></metadata><data><meanElements><EPOCH>2023-10-05T21:05:15.891360</EPOCH><MEAN_MOTION>14.35141467</MEAN_MOTION><ECCENTRICITY>.0003674</ECCENTRICITY><INCLINATION>44.9933</INCLINATION><RA_OF_ASC_NODE>229.1191</RA_OF_ASC_NODE><ARG_OF_PERICENTER>29.0884</ARG_OF_PERICENTER><MEAN_ANOMALY>331.0168</MEAN_ANOMALY></meanElements><tleParameters><EPHEMERIS_TYPE>0</EPHEMERIS_TYPE><CLASSIFICATION_TYPE>U</CLASSIFICATION_TYPE><NORAD_CAT_ID>25417</NORAD_CAT_ID><ELEMENT_SET_NO>999</ELEMENT_SET_NO><REV_AT_EPOCH>31503</REV_AT_EPOCH><BSTAR>.11458E-2</BSTAR><MEAN_MOTION_DOT>.3162E-4</MEAN_MOTION_DOT><MEAN_MOTION_DDOT>0</MEAN_MOTION_DDOT></tleParameters></data></segment></body></omm>
<omm id="CCSDS_OMM_VERS" version="2.0">
<header><CREATION_DATE/><ORIGINATOR/></header><body><segment><metadata><OBJECT_NAME>ORBCOMM FM14 [-]</OBJECT_NAME><OBJECT_ID>1998-046G</OBJECT_ID><CENTER_NAME>EARTH</CENTER_NAME><REF_FRAME>TEME</REF_FRAME><TIME_SYSTEM>UTC</TIME_SYSTEM><MEAN_ELEMENT_THEORY>SGP4</MEAN_ELEMENT_THEORY></metadata><data><meanElements><EPOCH>2023-10-05T20:37:59.044224</EPOCH><MEAN_MOTION>14.35009783</MEAN_MOTION><ECCENTRICITY>.0002817</ECCENTRICITY><INCLINATION>44.9959</INCLINATION><RA_OF_ASC_NODE>232.1400</RA_OF_ASC_NODE><ARG_OF_PERICENTER>1.7899</ARG_OF_PERICENTER><MEAN_ANOMALY>92.7079</MEAN_ANOMALY></meanElements><tleParameters><EPHEMERIS_TYPE>0</EPHEMERIS_TYPE><CLASSIFICATION_TYPE>U</CLASSIFICATION_TYPE><NORAD_CAT_ID>25419</NORAD_CAT_ID><ELEMENT_SET_NO>999</ELEMENT_SET_NO><REV_AT_EPOCH>31499</REV_AT_EPOCH><BSTAR>.12242E-2</BSTAR><MEAN_MOTION_DOT>.3379E-4</MEAN_MOTION_DOT><MEAN_MOTION_DDOT>0</MEAN_MOTION_DDOT></tleParameters></data></segment></body></omm>
<omm id="CCSDS_OMM_VERS" version="2.0">
<header><CREATION_DATE/><ORIGINATOR/></header><body><segment><metadata><OBJECT_NAME>ORBCOMM FM13 [+]</OBJECT_NAME><OBJECT_ID>1998-046H</OBJECT_ID><CENTER_NAME>EARTH</CENTER_NAME><REF_FRAME>TEME</REF_FRAME><TIME_SYSTEM>UTC</TIME_SYSTEM><MEAN_ELEMENT_THEORY>SGP4</MEAN_ELEMENT_THEORY></metadata><data><meanElements><EPOCH>2023-10-05T14:00:16.600608</EPOCH><MEAN_MOTION>14.34475904</MEAN_MOTION><ECCENTRICITY>.0004598</ECCENTRICITY><INCLINATION>44.9970</INCLINATION><RA_OF_ASC_NODE>237.2523</RA_OF_ASC_NODE><ARG_OF_PERICENTER>17.9315</ARG_OF_PERICENTER><MEAN_ANOMALY>342.1693</MEAN_ANOMALY></meanElements><tleParameters><EPHEMERIS_TYPE>0</EPHEMERIS_TYPE><CLASSIFICATION_TYPE>U</CLASSIFICATION_TYPE><NORAD_CAT_ID>25420</NORAD_CAT_ID><ELEMENT_SET_NO>999</ELEMENT_SET_NO><REV_AT_EPOCH>31403</REV_AT_EPOCH><BSTAR>.10734E-2</BSTAR><MEAN_MOTION_DOT>.2913E-4</MEAN_MOTION_DOT><MEAN_MOTION_DDOT>0</MEAN_MOTION_DDOT></tleParameters></data></segment></body></omm>
<omm id="CCSDS_OMM_VERS" version="2.0">
<header><CREATION_DATE/><ORIGINATOR/></header><body><segment><metadata><OBJECT_NAME>ORBCOMM FM21 [-]</OBJECT_NAME><OBJECT_ID>1998-053A</OBJECT_ID><CENTER_NAME>EARTH</CENTER_NAME><REF_FRAME>TEME</REF_FRAME><TIME_SYSTEM>UTC</TIME_SYSTEM><MEAN_ELEMENT_THEORY>SGP4</MEAN_ELEMENT_THEORY></metadata><data><meanElements><EPOCH>2023-10-05T11:05:23.120160</EPOCH><MEAN_MOTION>14.34499576</MEAN_MOTION><ECCENTRICITY>.0002178</ECCENTRICITY><INCLINATION>45.0093</INCLINATION><RA_OF_ASC_NODE>321.9235</RA_OF_ASC_NODE><ARG_OF_PERICENTER>269.0084</ARG_OF_PERICENTER><MEAN_ANOMALY>91.0513</MEAN_ANOMALY></meanElements><tleParameters><EPHEMERIS_TYPE>0</EPHEMERIS_TYPE><CLASSIFICATION_TYPE>U</CLASSIFICATION_TYPE><NORAD_CAT_ID>25475</NORAD_CAT_ID><ELEMENT_SET_NO>999</ELEMENT_SET_NO><REV_AT_EPOCH>30803</REV_AT_EPOCH><BSTAR>.91014E-3</BSTAR><MEAN_MOTION_DOT>.2449E-4</MEAN_MOTION_DOT><MEAN_MOTION_DDOT>0</MEAN_MOTION_DDOT></tleParameters></data></segment></body></omm>
<omm id="CCSDS_OMM_VERS" version="2.0">
<header><CREATION_DATE/><ORIGINATOR/></header><body><segment><metadata><OBJECT_NAME>ORBCOMM FM22 [-]</OBJECT_NAME><OBJECT_ID>1998-053B</OBJECT_ID><CENTER_NAME>EARTH</CENTER_NAME><REF_FRAME>TEME</REF_FRAME><TIME_SYSTEM>UTC</TIME_SYSTEM><MEAN_ELEMENT_THEORY>SGP4</MEAN_ELEMENT_THEORY></metadata><data><meanElements><EPOCH>2023-10-05T20:30:21.815424</EPOCH><MEAN_MOTION>14.34858250</MEAN_MOTION><ECCENTRICITY>.0003052</ECCENTRICITY><INCLINATION>45.0087</INCLINATION><RA_OF_ASC_NODE>318.0994</RA_OF_ASC_NODE><ARG_OF_PERICENTER>303.6604</ARG_OF_PERICENTER><MEAN_ANOMALY>56.3951</MEAN_ANOMALY></meanElements><tleParameters><EPHEMERIS_TYPE>0</EPHEMERIS_TYPE><CLASSIFICATION_TYPE>U</CLASSIFICATION_TYPE><NORAD_CAT_ID>25476</NORAD_CAT_ID><ELEMENT_SET_NO>999</ELEMENT_SET_NO><REV_AT_EPOCH>30807</REV_AT_EPOCH><BSTAR>.92975E-3</BSTAR><MEAN_MOTION_DOT>.2524E-4</MEAN_MOTION_DOT><MEAN_MOTION_DDOT>0</MEAN_MOTION_DDOT></tleParameters></data></segment></body></omm>
<omm id="CCSDS_OMM_VERS" version="2.0">
<header><CREATION_DATE/><ORIGINATOR/></header><body><segment><metadata><OBJECT_NAME>ORBCOMM FM23 [-]</OBJECT_NAME><OBJECT_ID>1998-053C</OBJECT_ID><CENTER_NAME>EARTH</CENTER_NAME><REF_FRAME>TEME</REF_FRAME><TIME_SYSTEM>UTC</TIME_SYSTEM><MEAN_ELEMENT_THEORY>SGP4</MEAN_ELEMENT_THEORY></metadata><data><meanElements><EPOCH>2023-10-05T13:28:11.519616</EPOCH><MEAN_MOTION>14.34475008</MEAN_MOTION><ECCENTRICITY>.0002612</ECCENTRICITY><INCLINATION>45.0095</INCLINATION><RA_OF_ASC_NODE>323.8957</RA_OF_ASC_NODE><ARG_OF_PERICENTER>290.5598</ARG_OF_PERICENTER><MEAN_ANOMALY>69.4968</MEAN_ANOMALY></meanElements><tleParameters><EPHEMERIS_TYPE>0</EPHEMERIS_TYPE><CLASSIFICATION_TYPE>U</CLASSIFICATION_TYPE><NORAD_CAT_ID>25477</NORAD_CAT_ID><ELEMENT_SET_NO>999</ELEMENT_SET_NO><REV_AT_EPOCH>30819</REV_AT_EPOCH><BSTAR>.83832E-3</BSTAR><MEAN_MOTION_DOT>.2244E-4</MEAN_MOTION_DOT><MEAN_MOTION_DDOT>0</MEAN_MOTION_DDOT></tleParameters></data></segment></body></omm>

</ndm>
