ORBCOMM FM20 [+]        
1 25416U 98046D   23278.58487966  .00002371  00000+0  88359-3 0  9998
2 25416  44.9935 233.3460 0002275 312.5279  47.5375 14.34451150315075
ORBCOMM FM16 [-]        
1 25417U 98046E   23278.87865615  .00003162  00000+0  11458-2 0  9996
2 25417  44.9933 229.1191 0003674  29.0884 331.0168 14.35141467315039
ORBCOMM FM14 [-]        
1 25419U 98046G   23278.85971116  .00003379  00000+0  12242-2 0  9992
2 25419  44.9959 232.1400 0002817   1.7899  92.7079 14.35009783314997
ORBCOMM FM13 [+]        
1 25420U 98046H   23278.58352547  .00002913  00000+0  10734-2 0  9992
2 25420  44.9970 237.2523 0004598  17.9315 342.1693 14.34475904314034
ORBCOMM FM21 [-]        
1 25475U 98053A   23278.46207315  .00002449  00000+0  91014-3 0  9994
2 25475  45.0093 321.9235 0002178 269.0084  91.0513 14.34499576308033
ORBCOMM FM22 [-]        
1 25476U 98053B   23278.85441916  .00002524  00000+0  92975-3 0  9996
2 25476  45.0087 318.0994 0003052 303.6604  56.3951 14.34858250308073
ORBCOMM FM23 [-]        
1 25477U 98053C   23278.56124444  .00002244  00000+0  83832-3 0  9990
2 25477  45.0095 323.8957 0002612 290.5598  69.4968 14.34475008308195
